1 34985U 97051NR  26114.13430146  .00001141  00000+0  33636-3 0  9997
2 34985  86.3736   0.3855 0022164 142.2714  10.6140 14.42647676890838
